OBJECT_NAME,OBJECT_ID,EPOCH,MEAN_MOTION,ECCENTRICITY,INCLINATION,RA_OF_ASC_NODE,ARG_OF_PERICENTER,MEAN_ANOMALY,EPHEMERIS_TYPE,CLASSIFICATION_TYPE,NORAD_CAT_ID,ELEMENT_SET_NO,REV_AT_EPOCH,BSTAR,MEAN_MOTION_DOT,MEAN_MOTION_DDOT
STARLINK-32561,2024-213U,2025-08-31T22:32:07.172160,15.30195382,.00012121,53.1577,329.4647,72.2222,287.8911,0,U,62026,999,4410,.10653386E-2,.31322E-3,0
STARLINK-32512,2024-213V,2025-08-31T12:44:59.788320,15.30171704,.00012821,53.1587,331.1850,72.8267,287.2874,0,U,62027,999,4404,.99173756E-3,.29103E-3,0
GSAT-N2 (GSAT-20),2024-214A,2025-09-01T04:21:15.578784,1.00270261,.00026489,0.0645,267.0661,118.2536,88.5998,0,U,62028,999,300,0,-.16E-6,0
STARLINK-32637,2024-216A,2025-09-01T06:54:18.014400,15.27623567,.00025124,43.0010,245.5726,266.1520,93.9045,0,U,62032,999,4491,.10643471E-2,.29183E-3,0
STARLINK-32582,2024-216B,2025-09-01T01:29:57.162624,15.27589393,.00011915,43.0002,254.2425,264.2846,95.7870,0,U,62033,999,4479,.93598843E-3,.25591E-3,0
STARLINK-32615,2024-216C,2025-09-01T01:33:11.919456,15.27595613,.00011295,43.0013,247.3370,262.7076,97.3647,0,U,62034,999,4371,.11490822E-2,.31508E-3,0
STARLINK-32592,2024-216D,2025-09-01T02:06:57.704832,15.27585875,.000135,43.0025,254.4357,254.9202,105.1501,0,U,62035,999,4480,.10139072E-2,.27748E-3,0
STARLINK-32225,2024-216E,2025-09-01T01:38:46.183776,15.27601535,.00014198,43.0021,247.3673,265.8019,94.2671,0,U,62036,999,4494,.12401581E-2,.34044E-3,0
STARLINK-32595,2024-216F,2025-09-01T01:50:16.845504,15.27646822,.00015946,43.0021,254.3489,265.7902,94.2767,0,U,62037,999,4480,.1136853E-2,.31218E-3,0
STARLINK-32477,2024-216G,2025-09-01T01:06:08.574048,15.27592353,.00015072,42.9992,243.7393,260.1253,99.9428,0,U,62038,999,4375,.81255702E-3,.22173E-3,0
STARLINK-32480,2024-216H,2025-08-31T17:51:39.897792,15.27588729,.00004383,43.0013,249.2333,260.4772,99.6031,0,U,62039,999,4366,.48099922E-3,.13001E-3,0
STARLINK-32510,2024-216J,2025-09-01T07:09:47.243808,15.27588513,.00013195,43.0001,253.4327,280.3335,79.7368,0,U,62040,999,4482,.14894944E-2,.40964E-3,0
STARLINK-32456,2024-216K,2025-09-01T00:13:50.996064,15.27607174,.0000989,43.0002,247.7865,264.7483,95.3256,0,U,62041,999,4486,.14293201E-2,.39312E-3,0
STARLINK-32509,2024-216L,2025-09-01T01:23:57.030144,15.27599977,.00007248,42.9980,247.2918,276.7735,83.3034,0,U,62042,999,4487,.12539112E-2,.34425E-3,0
STARLINK-32491,2024-216M,2025-09-01T07:04:14.064672,15.27588558,.00014522,43.0017,253.4059,272.3849,87.6836,0,U,62043,999,4482,.14087626E-2,.38718E-3,0
STARLINK-32577,2024-216N,2025-09-01T01:39:13.733280,15.27619616,.00007243,42.9977,254.2883,262.6319,97.4450,0,U,62044,999,4480,.17883136E-2,.49338E-3,0
STARLINK-32618,2024-216P,2025-09-01T01:40:36.160608,15.27598598,.0001037,42.9985,247.3756,257.8163,102.2572,0,U,62045,999,4487,.11538917E-2,.31645E-3,0
STARLINK-32598,2024-216Q,2025-09-01T06:45:03.899232,15.27601047,.0001469,43.0000,245.5216,273.0999,86.9685,0,U,62046,999,4491,.12673645E-2,.348E-3,0
STARLINK-32630,2024-216R,2025-09-01T01:55:52.995072,15.27602073,.00010461,43.0019,254.3751,272.2333,87.8399,0,U,62047,999,4479,.11434738E-2,.31359E-3,0
STARLINK-32599,2024-216S,2025-09-01T02:01:24.606048,15.27581912,.00014342,43.0043,254.4042,259.5613,100.5077,0,U,62048,999,4479,.10430725E-2,.28554E-3,0
STARLINK-32473,2024-216T,2025-09-01T01:27:38.641824,15.27582962,.00005121,42.9987,247.3081,287.6542,72.4254,0,U,62049,999,4371,.12201477E-2,.33469E-3,0
STARLINK-32492,2024-216U,2025-09-01T01:24:24.261696,15.27608361,.00007637,42.9910,254.2128,54.0337,306.0585,0,U,62050,999,4479,.12816656E-2,.35206E-3,0
STARLINK-32496,2024-216V,2025-09-01T00:42:03.432096,15.27616273,.00017066,43.0021,254.8565,275.2156,84.8501,0,U,62051,999,4478,.20575088E-2,.56857E-3,0
STARLINK-32495,2024-216W,2025-09-01T07:15:07.345440,15.27592997,.00020919,43.0002,252.5942,272.8176,87.2437,0,U,62052,999,4483,.12932521E-2,.35512E-3,0
STARLINK-32494,2024-216X,2025-09-01T01:35:30.423840,15.27597576,.00005799,42.9982,254.2681,264.0350,96.0435,0,U,62053,999,4479,.77684651E-3,.21188E-3,0
STARLINK-32408,2024-216Y,2025-09-01T01:22:06.213504,15.27605622,.00004703,42.9994,247.2799,268.7231,91.3567,0,U,62054,999,4488,.10986354E-2,.30117E-3,0
STARLINK-32571,2024-216Z,2025-09-01T06:39:30.619008,15.27601148,.00014863,43.0003,245.4894,273.2494,86.8187,0,U,62055,999,4501,.14213126E-2,.39082E-3,0
STARLINK-11465 [DTC],2024-217A,2025-08-31T14:52:04.655712,15.69797042,.00012163,53.1576,288.0310,123.5809,236.5325,0,U,62057,999,4532,.18228706E-2,.227222E-2,0
STARLINK-11426 [DTC],2024-217B,2025-08-31T10:09:57.892608,15.69743402,.0001136,53.1578,288.9398,77.7241,282.3904,0,U,62058,999,4523,.17886924E-2,.222322E-2,0
STARLINK-11454 [DTC],2024-217C,2025-09-01T06:51:18.133920,15.69799742,.00012452,53.1574,285.0857,42.6013,317.5101,0,U,62059,999,4542,.21117463E-2,.264554E-2,0
