STARLINK-32561          
1 62026U 24213U   25243.93897190  .00031322  00000+0  10653-2 0  9997
2 62026  53.1577 329.4647 0001212  72.2222 287.8911 15.30195382 44106
STARLINK-32512          
1 62027U 24213V   25243.53124755  .00029103  00000+0  99174-3 0  9994
2 62027  53.1587 331.1850 0001282  72.8267 287.2874 15.30171704 44043
GSAT-N2 (GSAT-20)       
1 62028U 24214A   25244.18143031 -.00000016  00000+0  00000+0 0  9995
2 62028   0.0645 267.0661 0002648 118.2536  88.5998  1.00270261  3008
STARLINK-32637          
1 62032U 24216A   25244.28770850  .00029183  00000+0  10643-2 0  9990
2 62032  43.0010 245.5726 0002512 266.1520  93.9045 15.27623567 44918
STARLINK-32582          
1 62033U 24216B   25244.06246716  .00025591  00000+0  93599-3 0  9997
2 62033  43.0002 254.2425 0001191 264.2846  95.7870 15.27589393 44795
STARLINK-32615          
1 62034U 24216C   25244.06472129  .00031508  00000+0  11491-2 0  9992
2 62034  43.0013 247.3370 0001129 262.7076  97.3647 15.27595613 43712
STARLINK-32592          
1 62035U 24216D   25244.08816788  .00027748  00000+0  10139-2 0  9997
2 62035  43.0025 254.4357 0001350 254.9202 105.1501 15.27585875 44807
STARLINK-32225          
1 62036U 24216E   25244.06859009  .00034044  00000+0  12402-2 0  9991
2 62036  43.0021 247.3673 0001419 265.8019  94.2671 15.27601535 44942
STARLINK-32595          
1 62037U 24216F   25244.07658386  .00031218  00000+0  11369-2 0  9999
2 62037  43.0021 254.3489 0001594 265.7902  94.2767 15.27646822 44809
STARLINK-32477          
1 62038U 24216G   25244.04593257  .00022173  00000+0  81256-3 0  9995
2 62038  42.9992 243.7393 0001507 260.1253  99.9428 15.27592353 43751
STARLINK-32480          
1 62039U 24216H   25243.74421178  .00013001  00000+0  48100-3 0  9995
2 62039  43.0013 249.2333 0000438 260.4772  99.6031 15.27588729 43663
STARLINK-32510          
1 62040U 24216J   25244.29846347  .00040964  00000+0  14895-2 0  9998
2 62040  43.0001 253.4327 0001319 280.3335  79.7368 15.27588513 44829
STARLINK-32456          
1 62041U 24216K   25244.00961801  .00039312  00000+0  14293-2 0  9998
2 62041  43.0002 247.7865 0000989 264.7483  95.3256 15.27607174 44865
STARLINK-32509          
1 62042U 24216L   25244.05829896  .00034425  00000+0  12539-2 0  9992
2 62042  42.9980 247.2918 0000724 276.7735  83.3034 15.27599977 44876
STARLINK-32491          
1 62043U 24216M   25244.29460723  .00038718  00000+0  14088-2 0  9999
2 62043  43.0017 253.4059 0001452 272.3849  87.6836 15.27588558 44827
STARLINK-32577          
1 62044U 24216N   25244.06890895  .00049338  00000+0  17883-2 0  9998
2 62044  42.9977 254.2883 0000724 262.6319  97.4450 15.27619616 44809
STARLINK-32618          
1 62045U 24216P   25244.06986297  .00031645  00000+0  11539-2 0  9995
2 62045  42.9985 247.3756 0001037 257.8163 102.2572 15.27598598 44874
STARLINK-32598          
1 62046U 24216Q   25244.28129513  .00034800  00000+0  12674-2 0  9997
2 62046  43.0000 245.5216 0001469 273.0999  86.9685 15.27601047 44914
STARLINK-32630          
1 62047U 24216R   25244.08047448  .00031359  00000+0  11435-2 0  9992
2 62047  43.0019 254.3751 0001046 272.2333  87.8399 15.27602073 44799
STARLINK-32599          
1 62048U 24216S   25244.08431257  .00028554  00000+0  10431-2 0  9996
2 62048  43.0043 254.4042 0001434 259.5613 100.5077 15.27581912 44795
STARLINK-32473          
1 62049U 24216T   25244.06086391  .00033469  00000+0  12201-2 0  9998
2 62049  42.9987 247.3081 0000512 287.6542  72.4254 15.27582962 43715
STARLINK-32492          
1 62050U 24216U   25244.05861414  .00035206  00000+0  12817-2 0  9990
2 62050  42.9910 254.2128 0000763  54.0337 306.0585 15.27608361 44792
STARLINK-32496          
1 62051U 24216V   25244.02920639  .00056857  00000+0  20575-2 0  9998
2 62051  43.0021 254.8565 0001706 275.2156  84.8501 15.27616273 44782
STARLINK-32495          
1 62052U 24216W   25244.30216835  .00035512  00000+0  12933-2 0  9990
2 62052  43.0002 252.5942 0002091 272.8176  87.2437 15.27592997 44836
STARLINK-32494          
1 62053U 24216X   25244.06632435  .00021188  00000+0  77685-3 0  9992
2 62053  42.9982 254.2681 0000579 264.0350  96.0435 15.27597576 44796
STARLINK-32408          
1 62054U 24216Y   25244.05701636  .00030117  00000+0  10986-2 0  9994
2 62054  42.9994 247.2799 0000470 268.7231  91.3567 15.27605622 44887
STARLINK-32571          
1 62055U 24216Z   25244.27743772  .00039082  00000+0  14213-2 0  9993
2 62055  43.0003 245.4894 0001486 273.2494  86.8187 15.27601148 45019
STARLINK-11465 [DTC]    
1 62057U 24217A   25243.61949833  .00227222  00000+0  18229-2 0  9995
2 62057  53.1576 288.0310 0001216 123.5809 236.5325 15.69797042 45329
STARLINK-11426 [DTC]    
1 62058U 24217B   25243.42358672  .00222322  00000+0  17887-2 0  9995
2 62058  53.1578 288.9398 0001136  77.7241 282.3904 15.69743402 45231
STARLINK-11454 [DTC]    
1 62059U 24217C   25244.28562655  .00264554  00000+0  21117-2 0  9993
2 62059  53.1574 285.0857 0001245  42.6013 317.5101 15.69799742 45424
